API VERSION: 1.2
API SOURCE: NASA/JPL Horizons API



*******************************************************************************
Ephemeris / API_USER Wed Apr 15 10:21:25 2026 Pasadena, USA      / Horizons
*******************************************************************************
Target body name: Earth (399)                     {source: DE441}
Center body name: Sun (10)                        {source: DE441}
Center-site name: BODY CENTER
*******************************************************************************
Start time      : A.D. 2400-Jan-01 00:00:00.0000 TDB
Stop  time      : A.D. 2499-Dec-17 00:00:00.0000 TDB
Step-size       : 43200 minutes
*******************************************************************************
Center geodetic : 0.0, 0.0, 0.0                   {E-lon(deg),Lat(deg),Alt(km)}
Center cylindric: 0.0, 0.0, 0.0                   {E-lon(deg),Dxy(km),Dz(km)}
Center radii    : 695700.0, 695700.0, 695700.0 km {Equator_a, b, pole_c}
Output units    : AU-D
Calendar mode   : Mixed Julian/Gregorian
Output type     : GEOMETRIC cartesian states
Output format   : 3 (position, velocity, LT, range, range-rate)
Reference frame : Ecliptic of J2000.0
*******************************************************************************
            JDTDB,            Calendar Date (TDB),                      X,                      Y,                      Z,                     VX,                     VY,                     VZ,                     LT,                     RG,                     RR,
**************************************************************************************************************************************************************************************************************************************************************************
$$SOE
2613841.500000000, A.D. 2444-May-09 00:00:00.0000, -7.364555741986153E-01, -6.878105099260456E-01,  7.692691360645552E-04,  1.146221625287185E-02, -1.264707917686289E-02,  1.183781607349025E-05,  5.819965212272064E-03,  1.007695738855704E+00,  2.554243529644407E-04,
2613871.500000000, A.D. 2444-Jun-08 00:00:00.0000, -3.138495525576249E-01, -9.640521541106638E-01,  1.001617276251809E-03,  1.608099976281618E-02, -5.401970639424140E-03,  4.243014498505248E-06,  5.855529990927143E-03,  1.013853589392078E+00,  1.585742780802281E-04,
2613901.500000000, A.D. 2444-Jul-08 00:00:00.0000,  1.876009728269532E-01, -9.990134169813495E-01,  9.834580415265710E-04,  1.663400995712647E-02,  3.098342880816281E-03, -4.377872142078761E-06,  5.870674183169273E-03,  1.016475724994990E+00,  2.485650719558870E-05,
2613931.500000000, A.D. 2444-Aug-07 00:00:00.0000,  6.424642375483702E-01, -7.857005451784566E-01,  7.208331215156295E-04,  1.304724468370309E-02,  1.081502627115099E-02, -1.196401616015472E-05,  5.861756089817605E-03,  1.014931604997461E+00, -1.133007909431820E-04,
2613961.500000000, A.D. 2444-Sep-06 00:00:00.0000,  9.367966846783345E-01, -3.764101975903715E-01,  2.781671877820818E-04,  6.145275663518465E-03,  1.589150641610622E-02, -1.667468418527664E-05,  5.830907767706375E-03,  1.009590383596895E+00, -2.227198714250367E-04,
2613991.500000000, A.D. 2444-Oct-06 00:00:00.0000,  9.935593577718226E-01,  1.278754954026396E-01, -2.350272205385104E-04, -2.465163211278511E-03,  1.699534493448984E-02, -1.722185933572188E-05,  5.785652391323962E-03,  1.001754658076628E+00, -2.755103498975968E-04,
2614021.500000000, A.D. 2444-Nov-05 00:00:00.0000,  7.928926139055875E-01,  5.984771152770573E-01, -6.872698185307587E-04, -1.063623378802909E-02,  1.366707195809774E-02, -1.320872188944637E-05,  5.737430337467366E-03,  9.934052682748299E-01, -2.556381979130592E-04,
2614051.500000000, A.D. 2444-Dec-05 00:00:00.0000,  3.820571392267309E-01,  9.097805005766243E-01, -9.568965830843148E-04, -1.613817017611259E-02,  6.597942167388121E-03, -5.441011983587466E-06,  5.698973895932258E-03,  9.867467418312753E-01, -1.652083443715521E-04,
2614081.500000000, A.D. 2445-Jan-04 00:00:00.0000, -1.318463353189952E-01,  9.747313288611987E-01, -9.672670722208997E-04, -1.732897924809974E-02, -2.371288228944109E-03,  4.032643650765473E-06,  5.680848552591971E-03,  9.836084359165268E-01, -2.705387377992932E-05,
2614111.500000000, A.D. 2445-Feb-03 00:00:00.0000, -6.096741591452890E-01,  7.734813080972724E-01, -7.130485876246768E-04, -1.379356992607480E-02, -1.071923735148188E-02,  1.246258877775118E-05,  5.688156747090441E-03,  9.848738105684766E-01,  1.202636623694563E-04,
2614141.500000000, A.D. 2445-Mar-05 00:00:00.0000, -9.217941144369297E-01,  3.616034215752678E-01, -2.641460147312974E-04, -6.564100350085970E-03, -1.608948115121042E-02,  1.739603403653426E-05,  5.718817502107076E-03,  9.901825557333462E-01,  2.350405359027372E-04,
2614171.500000000, A.D. 2445-Apr-04 00:00:00.0000, -9.870800961985078E-01, -1.476188219689353E-01,  2.563120303292543E-04,  2.266152005506761E-03, -1.709158420291898E-02,  1.754744168088690E-05,  5.764298592267798E-03,  9.980573623828486E-01,  2.867274912524912E-04,
2614201.500000000, A.D. 2445-May-04 00:00:00.0000, -7.937143091837551E-01, -6.187335224116103E-01,  7.102315293703975E-04,  1.030262876539703E-02, -1.364621386126922E-02,  1.308598285306597E-05,  5.812404521168233E-03,  1.006386645771768E+00,  2.643470994540703E-04,
2614231.500000000, A.D. 2445-Jun-03 00:00:00.0000, -3.970292070392292E-01, -9.319890561423519E-01,  9.827627395496287E-04,  1.555680943460282E-02, -6.819186847246751E-03,  5.354882793469586E-06,  5.850793223818776E-03,  1.013033443591036E+00,  1.766033128069067E-04,
2614261.500000000, A.D. 2445-Jul-03 00:00:00.0000,  9.959573796461928E-02, -1.011464946665548E+00,  1.008541887528469E-03,  1.685275123434167E-02,  1.612455402257576E-03, -3.639232629114584E-06,  5.869988811707006E-03,  1.016357056604910E+00,  4.675168814545761E-05,
2614291.500000000, A.D. 2445-Aug-02 00:00:00.0000,  5.715368079571420E-01, -8.394612344866976E-01,  7.832734455780732E-04,  1.395269896147706E-02,  9.613021755385764E-03, -1.170269107345624E-05,  5.865351237363358E-03,  1.015554085498680E+00, -9.382784320586161E-05,
2614321.500000000, A.D. 2445-Sep-01 00:00:00.0000,  9.009065214235374E-01, -4.583692199008027E-01,  3.624803845681805E-04,  7.530798604695637E-03,  1.526847075401367E-02, -1.686791994297256E-05,  5.837946477620300E-03,  1.010809098439442E+00, -2.117685413778701E-04,
2614351.500000000, A.D. 2445-Oct-01 00:00:00.0000,  1.002541064017053E+00,  3.814295474523731E-02, -1.503952121811163E-04, -9.293245234116153E-04,  1.712883584303094E-02, -1.772836575286147E-05,  5.794383551542824E-03,  1.003266411605543E+00, -2.774327104324508E-04,
2614381.500000000, A.D. 2445-Oct-31 00:00:00.0000,  8.454618535645393E-01,  5.242750156259225E-01, -6.241708696952147E-04, -9.346796519716280E-03,  1.455745980986215E-02, -1.384354857417021E-05,  5.745611582112819E-03,  9.948218068737850E-01, -2.716454329345277E-04,
2614411.500000000, A.D. 2445-Nov-30 00:00:00.0000,  4.651227502838320E-01,  8.713193706033064E-01, -9.320733917312250E-04, -1.546046125422414E-02,  8.034418714714131E-03, -6.130675609230190E-06,  5.704439100226568E-03,  9.876930126213030E-01, -1.928351065359117E-04,
2614441.500000000, A.D. 2445-Dec-30 00:00:00.0000, -4.040194126839963E-02,  9.829993900798092E-01, -9.878761743421674E-04, -1.747322830292650E-02, -7.785527540893078E-04,  3.304214003702137E-06,  5.682127098589898E-03,  9.838298092936948E-01, -6.034356993866712E-05,
2614471.500000000, A.D. 2446-Jan-29 00:00:00.0000, -5.347708430076874E-01,  8.263787840792264E-01, -7.739536899740922E-04, -1.472469048848914E-02, -9.422693658904120E-03,  1.178126493226811E-05,  5.684947894497239E-03,  9.843182149649206E-01,  8.900769839969616E-05,
2614501.500000000, A.D. 2446-Feb-28 00:00:00.0000, -8.835411223681826E-01,  4.444174847482631E-01, -3.490327796099514E-04, -8.007684574377958E-03, -1.544690105204907E-02,  1.692774897334985E-05,  5.712077962766295E-03,  9.890156406697934E-01,  2.125747932840355E-04,
2614531.500000000, A.D. 2446-Mar-30 00:00:00.0000, -9.949463921515538E-01, -5.743371003670832E-02,  1.699692473289286E-04,  7.187229594965722E-04, -1.725233746859429E-02,  1.744414370464087E-05,  5.755897283394089E-03,  9.966027208439274E-01,  2.767179853307316E-04,
2614561.500000000, A.D. 2446-Apr-29 00:00:00.0000, -8.445922594996718E-01, -5.447351342515037E-01,  6.446001208485390E-04,  9.055156060899449E-03, -1.453195382743773E-02,  1.341348876229938E-05,  5.804533461566361E-03,  1.005023814048245E+00,  2.668192973309343E-04,
2614591.500000000, A.D. 2446-May-29 00:00:00.0000, -4.770850292166166E-01, -8.926000661565174E-01,  9.539751385879926E-04,  1.490417289726994E-02, -8.180065748050417E-03,  6.085821619962689E-06,  5.845400685970633E-03,  1.012099754606138E+00,  1.886921428291169E-04,
2614621.500000000, A.D. 2446-Jun-28 00:00:00.0000,  1.079226787621280E-02, -1.016019880630581E+00,  1.023343587903004E-03,  1.693321798798347E-02,  1.160930537271030E-04, -2.598929688569282E-06,  5.868375455490904E-03,  1.016077712635500E+00,  6.376708546896626E-05,
2614651.500000000, A.D. 2446-Jul-28 00:00:00.0000,  4.961051981748505E-01, -8.866415353653014E-01,  8.381327813170913E-04,  1.474034568818320E-02,  8.336521498614986E-03, -1.050339432918235E-05,  5.867921742712791E-03,  1.015999154703195E+00, -7.751276682706666E-05,
2614681.500000000, A.D. 2446-Aug-27 00:00:00.0000,  8.578320286095812E-01, -5.366745982315382E-01,  4.447232434901839E-04,  8.846746350571534E-03,  1.452103261652514E-02, -1.573490828424484E-05,  5.844115727561722E-03,  1.011877270954425E+00, -2.016588181316511E-04,
2614711.500000000, A.D. 2446-Sep-26 00:00:00.0000,  1.003359725586912E+00, -5.188836206810301E-02, -5.985732266451322E-05,  6.067639128423465E-04,  1.711452561053921E-02, -1.701613084075335E-05,  5.802666298866886E-03,  1.004700524848501E+00, -2.779347705825227E-04,
